[
  { "id": "20", "code": "EG", "name": "مصر", "phone_code": "20" },
  { "id": "212", "code": "MA", "name": "المغرب", "phone_code": "212" },
  { "id": "213", "code": "DZ", "name": "الجزائر", "phone_code": "213" },
  { "id": "216", "code": "TN", "name": "تونس", "phone_code": "216" },
  { "id": "218", "code": "LY", "name": "ليبيا", "phone_code": "218" },
  { "id": "222", "code": "MR", "name": "موريتانيا", "phone_code": "222" },
  { "id": "249", "code": "SD", "name": "السودان", "phone_code": "249" },
  { "id": "252", "code": "SO", "name": "الصومال", "phone_code": "252" },
  { "id": "253", "code": "DJ", "name": "جيبوتي", "phone_code": "253" },
  { "id": "269", "code": "KM", "name": "جزر القمر", "phone_code": "269" }, 
  { "id": "961", "code": "LB", "name": "لبنان", "phone_code": "961" },
  { "id": "962", "code": "JO", "name": "الأردن", "phone_code": "962" }, /* check this site for the official cities https://moi.gov.jo/Ar/List/%D8%A7%D9%84%D9%85%D8%AD%D8%A7%D9%81%D8%B8%D8%A7%D8%AA_%D9%88%D8%A7%D9%84%D9%85%D8%B1%D8%A7%D9%83%D8%B2_%D8%A7%D9%84%D8%A5%D8%AF%D8%A7%D8%B1%D9%8A%D8%A9 */
  { "id": "963", "code": "SR", "name": "سوريا", "phone_code": "963" },
  { "id": "964", "code": "IQ", "name": "العراق", "phone_code": "964" },
  { "id": "965", "code": "KW", "name": "الكويت", "phone_code": "965" },
  { "id": "966", "code": "SA", "name": "السعودية", "phone_code": "966" },
  { "id": "967", "code": "YE", "name": "اليمن", "phone_code": "967" },
  { "id": "968", "code": "OM", "name": "عمان", "phone_code": "968" },
  { "id": "970", "code": "PS", "name": "فلسطين", "phone_code": "970" },
  { "id": "971", "code": "AE", "name": "الإمارات العربية المتحدة", "phone_code": "971" },
  { "id": "973", "code": "BH", "name": "البحرين", "phone_code": "973" },
  { "id": "974", "code": "QA", "name": "قطر", "phone_code": "974" }
]
